{"fetched_at": "2026-03-10T12:39:04.751901+00:00", "count": 377, "satellites": [ {"name": "GXIBA-1", "tle1": "1 67684U 98067YA  26068.31453739  .00079693  00000+0  11905-2 0  9999", "tle2": "2 67684  51.6300  73.4032 0011013 174.4815 185.6299 15.54259962  4735", "norad_id": 67684, "group": "stations", "highlight": false}, {"name": "STARLINK-1338", "tle1": "1 45532U 20025B   26069.00003471  .00150413  00000+0  21823-2 0  9997", "tle2": "2 45532  53.0494  83.2278 0005035   6.9881 220.5840 15.54826555  5924", "norad_id": 45532, "group": "starlink", "highlight": false}]}